
# G02 (GNSS)
1 28474U 04045A   26162.34320756 -.00000066  00000+0  00000+0 0  9996
2 28474  55.1399 325.1314 0169872 316.2822  62.1293  2.00555552158315

# G05 (GNSS)
1 35752U 09043A   26163.29215050 -.00000064  00000+0  00000+0 0  9999
2 35752  56.2072  27.6438 0053759  83.0379  29.3335  2.00554420123266

# G07 (GNSS)
1 32711U 08012A   26163.15061438  .00000094  00000+0  00000+0 0  9992
2 32711  54.4967 150.1259 0211187 247.7837 109.9640  2.00572244133655

# G12 (GNSS)
1 29601U 06052A   26161.93672684  .00000078  00000+0  00000+0 0  9995
2 29601  54.9356 214.2541 0085247  90.7995 270.2610  2.00557843143286

# G15 (GNSS)
1 32260U 07047A   26163.23882086 -.00000037  00000+0  00000+0 0  9995
2 32260  54.0917  80.2696 0166590  87.2801 274.6185  2.00555387136711

# G16 (GNSS)
1 27663U 03005A   26163.16289531  .00000084  00000+0  00000+0 0  9995
2 27663  54.8829 215.1687 0147930  53.0708 338.9785  2.00560784171216

# G17 (GNSS)
1 28874U 05038A   26162.93517096 -.00000034  00000+0  00000+0 0  9998
2 28874  54.8825 273.3896 0127828 296.1108 113.2045  2.00565961151733

# G19 (GNSS)
1 28190U 04009A   26162.92611682 -.00000037  00000+0  00000+0 0  9994
2 28190  54.8343 275.8999 0115929 172.8401 201.5015  2.00554824162843

# G22 (GNSS)
1 26407U 00040A   26163.32110391  .00000084  00000+0  00000+0 0  9991
2 26407  54.8520 215.3556 0121076 302.4522  67.8911  2.00557597189850

# G25 (GNSS)
1 36585U 10022A   26162.97231094  .00000093  00000+0  00000+0 0  9994
2 36585  54.2706 208.7721 0126335  66.1306 293.7804  2.00562130117485

# G29 (GNSS)
1 32384U 07062A   26162.00193079 -.00000038  00000+0  00000+0 0  9991
2 32384  55.0367 274.4015 0035635 165.0205 149.1612  2.00559715135380

# G31 (GNSS)
1 29486U 06042A   26163.13594365  .00000097  00000+0  00000+0 0  9999
2 29486  54.7101 151.5395 0106514  54.2915  38.3811  2.00570092144290

# C06 (GNSS)
1 36828U 10036A   26162.96577620 -.00000029  00000+0  00000+0 0  9996
2 36828  54.3019 163.0075 0059190 225.0550 327.5844  1.00273454 58042

# C04 (GNSS)
1 37210U 10057A   26163.65298333 -.00000100  00000+0  00000+0 0  9993
2 37210   3.6342  68.9757 0005119 197.7214  29.3695  1.00271259 57241

# C07 (GNSS)
1 37256U 10068A   26162.63123517 -.00000226  00000+0  00000+0 0  9992
2 37256  47.5583 271.9034 0055444 212.3317 110.6962  1.00285295 56732

# R01 (GNSS)
1 36111U 09070A   26162.45253096 -.00000033  00000+0  00000+0 0  9994
2 36111  65.0078  71.1678 0004811 328.5982 208.2544  2.13103889128305

# R03 (GNSS)
1 37867U 11064A   26163.51289669 -.00000032  00000+0  00000+0 0  9991
2 37867  65.2671  73.0295 0022751 239.0136 299.6480  2.13103940113665

# R06 (GNSS)
1 36112U 09070B   26162.70798699 -.00000033  00000+0  00000+0 0  9996
2 36112  64.9934  71.0034 0002568 125.8504  14.4375  2.13101285128313

# R07 (GNSS)
1 37868U 11064B   26163.33135091 -.00000032  00000+0  00000+0 0  9991
2 37868  65.2735  73.1149 0019937 240.6058 339.1353  2.13103118113654

# R08 (GNSS)
1 37869U 11064C   26163.39695391 -.00000032  00000+0  00000+0 0  9992
2 37869  65.2806  73.1342 0025707 253.4520 331.7577  2.13101988113667

# R10 (GNSS)
1 32395U 07065C   26162.37661148  .00000121  00000+0  00000+0 0  9995
2 32395  64.3261 192.1838 0017255 354.1299  98.7062  2.13100308143605

# R13 (GNSS)
1 32393U 07065A   26164.06710712  .00000117  00000+0  00000+0 0  9998
2 32393  64.3199 192.0547 0001152 331.0720 206.3087  2.13101303143689

# R20 (GNSS)
1 32276U 07052B   26162.35423378 -.00000041  00000+0  00000+0 0  9990
2 32276  65.5974 316.2581 0007764 332.8636  24.5023  2.13103380144959

# R23 (GNSS)
1 36402U 10007C   26163.22479050 -.00000046  00000+0  00000+0 0  9999
2 36402  65.4235 314.6349 0002099 105.2859  73.4364  2.13101705126626

# R25 (GNSS)
1 32275U 07052A   26161.34602035 -.00000036  00000+0  00000+0 0  9990
2 32275  65.5811 316.1641 0002223 191.9747 168.0168  2.13104347144910
